[{"OBJECT_NAME":"ONEWEB-0357","OBJECT_ID":"2021-083AK","EPOCH":"2026-03-09T15:52:10.473312","MEAN_MOTION":13.20771071,"ECCENTRICITY":0.00017459,"INCLINATION":87.9172,"RA_OF_ASC_NODE":294.3042,"ARG_OF_PERICENTER":89.431,"MEAN_ANOMALY":270.7023,"EPHEMERIS_TYPE":0,"CLASSIFICATION_TYPE":"U","NORAD_CAT_ID":49219,"ELEMENT_SET_NO":999,"REV_AT_EPOCH":22367,"BSTAR":-0.00047592723,"MEAN_MOTION_DOT":-1.81e-6,"MEAN_MOTION_DDOT":0},{"OBJECT_NAME":"SL-14 R\/B","OBJECT_ID":"1994-003B","EPOCH":"2026-03-09T17:41:22.645824","MEAN_MOTION":13.1700857,"ECCENTRICITY":0.00173324,"INCLINATION":82.5665,"RA_OF_ASC_NODE":157.3829,"ARG_OF_PERICENTER":94.1857,"MEAN_ANOMALY":18.9829,"EPHEMERIS_TYPE":0,"CLASSIFICATION_TYPE":"U","NORAD_CAT_ID":22970,"ELEMENT_SET_NO":999,"REV_AT_EPOCH":54389,"BSTAR":2.2491534e-5,"MEAN_MOTION_DOT":2.1e-7,"MEAN_MOTION_DDOT":0}]
